GAOFEN-1                
1 39150U 13018A   26196.93207067 -.00000128  00000+0 -11017-4 0  9995
2 39150  97.9091 268.4139 0017083 168.7601 191.3993 14.76517962712481
FENGYUN 3C              
1 39260U 13052A   26196.94920980  .00000026  00000+0  34387-4 0  9992
2 39260  98.4999 169.5064 0013639 303.6275  56.3598 14.15760894662633
FENGYUN 4A              
1 41882U 16077A   26196.86672139 -.00000369  00000+0  00000+0 0  9997
2 41882   2.3930  79.9483 0008499 159.6393 129.8761  1.00267758 35219
FORMOSAT-5              
1 42920U 17049A   26196.87945251  .00000044  00000+0  22095-4 0  9992
2 42920  98.2246 271.5507 0011294   1.7428 358.3805 14.50907929470836
FENGYUN 3D              
1 43010U 17072A   26196.90101493  .00000049  00000+0  45032-4 0  9996
2 43010  99.0140 171.8448 0001478  12.3918 347.7294 14.19745145449060
GAOFEN-1 02             
1 43259U 18031A   26196.96558528  .00000141  00000+0  27600-4 0  9992
2 43259  98.0518 259.4098 0001482 283.4730  76.6314 14.76472139446943
FENGYUN 3E              
1 49008U 21062A   26196.95217981 -.00000322  00000+0 -13119-3 0  9994
2 49008  98.7495 200.0400 0002226  37.8101 322.3231 14.19905549260666
FENGYUN 3G              
1 56232U 23055A   26196.99156602  .00014258  00000+0  22423-3 0  9990
2 56232  49.9905 197.4634 0007028  59.5601 300.6060 15.53811732184489
FENGYUN 3F              
1 57490U 23111A   26196.93540385  .00000016  00000+0  28113-4 0  9999
2 57490  98.6825 266.4068 0001261  76.1287 284.0030 14.19943465152942
FENGYUN 3H              
1 65815U 25219A   26196.86169207  .00000007  00000+0  23893-4 0  9992
2 65815  98.6770 137.0741 0001130  62.4544 297.6747 14.19924852 41458
